STARLINK-33922          
1 63698U 25087B   26068.69325873  .00020283  00000+0  69520-3 0  9998
2 63698  53.1587 219.2958 0000700  65.3200 294.7873 15.30194440 49196
SCS-01 D                
1 63985U 25100D   26068.75607686  .00032471  00000+0  10528-2 0  9990
2 63985  97.3730 145.4097 0006346 266.2302  93.8214 15.31902149 45621
